OBJECT_NAME,OBJECT_ID,EPOCH,MEAN_MOTION,ECCENTRICITY,INCLINATION,RA_OF_ASC_NODE,ARG_OF_PERICENTER,MEAN_ANOMALY,EPHEMERIS_TYPE,CLASSIFICATION_TYPE,NORAD_CAT_ID,ELEMENT_SET_NO,REV_AT_EPOCH,BSTAR,MEAN_MOTION_DOT,MEAN_MOTION_DDOT
STARLINK-34706,2025-152D,2026-06-12T04:38:46.828320,15.05659713,.00020836,97.3718,17.7608,72.5084,287.6371,0,U,64845,999,4963,.2771005E-3,.3944E-4,0
STARLINK-34736,2025-152E,2026-06-12T20:00:01.999008,15.05651227,.0001787,97.3674,18.4487,87.9120,332.7326,0,U,64846,999,583,-.24305E-3,-.3563E-4,0
STARLINK-34746,2025-152F,2026-06-12T03:54:55.607904,15.05653581,.00022294,97.3729,17.8035,89.2009,270.9474,0,U,64847,999,4963,.9989743E-4,.1384E-4,0
STARLINK-34748,2025-152G,2026-06-12T21:07:41.376864,15.05660205,.0001906,97.3702,18.5220,94.9658,265.1787,0,U,64848,999,4974,.39508E-3,.5649E-4,0
STARLINK-34756,2025-152H,2026-06-12T19:55:56.207424,15.05661383,.0001852,97.3697,18.4521,84.9275,275.2164,0,U,64849,999,4973,.33411E-3,.4768E-4,0
STARLINK-34757,2025-152J,2026-06-12T20:07:52.349376,15.05656359,.0002227,97.3699,18.4223,88.4752,271.6730,0,U,64850,999,4973,.18207E-3,.2571E-4,0
STARLINK-34722,2025-152K,2026-06-12T20:23:49.231104,15.05658496,.0002716,97.3694,18.4096,80.5314,279.6220,0,U,64851,999,4973,.22346E-3,.3169E-4,0
STARLINK-34564,2025-152L,2026-06-12T19:59:53.383200,15.05650960,.0001867,97.3698,18.4316,86.2826,273.8615,0,U,64852,999,4973,.3087E-3,.4399E-4,0
STARLINK-34676,2025-152M,2026-06-12T20:27:48.526272,15.05660815,.0003384,97.3693,18.4037,86.1206,274.0408,0,U,64853,999,4973,.18179E-4,.205E-5,0
STARLINK-34682,2025-152N,2026-06-12T03:23:01.957632,15.05656155,.00024504,97.3729,17.8385,86.9515,273.1993,0,U,64854,999,4963,.13981523E-3,.1961E-4,0
STARLINK-34631,2025-152P,2026-06-12T20:03:54.822816,15.05662819,.0002604,97.3694,18.4276,76.0235,284.1282,0,U,64855,999,4973,.36726E-3,.5247E-4,0
STARLINK-34578,2025-152Q,2026-06-12T03:15:03.395808,15.05662614,.00021543,97.3715,17.8467,93.5460,266.6014,0,U,64856,999,4963,.34751654E-3,.4962E-4,0
STARLINK-34683,2025-152R,2026-06-12T07:02:20.264640,15.05659263,.00021525,97.3715,17.9388,80.8602,279.2868,0,U,64857,999,4965,.99039613E-4,.1372E-4,0
STARLINK-34654,2025-152S,2026-06-12T20:51:44.497728,15.05661709,.0002411,97.3690,18.5291,79.8828,280.2671,0,U,64858,999,4974,.11427E-3,.1592E-4,0
STARLINK-34575,2025-152T,2026-06-12T20:43:46.180416,15.05658466,.0002226,97.3693,18.5452,86.8415,273.3067,0,U,64859,999,4974,.1756E-3,.2478E-4,0
STARLINK-34570,2025-152U,2026-06-12T20:31:47.117280,15.05655878,.0002898,97.3696,18.4102,86.5355,273.6204,0,U,64860,999,4973,.34301E-4,.437E-5,0
STARLINK-34651,2025-152V,2026-06-12T20:11:52.368576,15.05653514,.0002494,97.3687,18.4412,90.1974,269.9539,0,U,64861,999,4973,.29736E-3,.4236E-4,0
STARLINK-34684,2025-152W,2026-06-12T03:38:58.461792,15.05658221,.00017935,97.3724,17.8270,83.7572,276.3860,0,U,64862,999,4963,.43132894E-4,.565E-5,0
STARLINK-34690,2025-152X,2026-06-12T20:59:43.027584,15.05658351,.0002019,97.3687,18.5360,75.1840,284.9611,0,U,64863,999,4974,.22122E-3,.3136E-4,0
STARLINK-34628,2025-152Y,2026-06-12T03:42:57.784608,15.05664358,.00020754,97.3714,17.8164,70.5812,289.5639,0,U,64864,999,4963,.18349197E-3,.2592E-4,0
STARLINK-34544,2025-152Z,2026-06-12T21:03:42.477408,15.05644156,.0001293,97.3727,18.5271,89.4298,270.7078,0,U,64865,999,4974,.45475E-4,.599E-5,0
STARLINK-34647,2025-157A,2026-06-11T14:06:39.043296,15.34386358,.0001274,53.1598,269.2740,94.7583,265.3565,0,U,64904,999,5049,.63887E-3,.21261E-3,0
STARLINK-34273,2025-157B,2026-06-11T13:54:31.562208,15.34404538,.0001097,53.1593,269.2114,91.8632,268.2496,0,U,64905,999,5051,.86593E-3,.28998E-3,0
STARLINK-34713,2025-157C,2026-06-11T14:37:33.476736,15.30209433,.00012478,53.1591,269.3980,129.1970,230.9142,0,U,64906,999,5045,.69810029E-3,.20379E-3,0
STARLINK-34712,2025-157D,2026-06-11T13:59:56.061600,15.34430423,.0001005,53.1588,267.8203,75.2875,284.8239,0,U,64907,999,5052,.12697E-2,.42809E-3,0
STARLINK-34702,2025-157E,2026-06-11T13:35:41.164224,15.31686185,.00013,53.1603,269.1324,70.6042,289.5100,0,U,64908,999,5050,.97195E-3,.29904E-3,0
STARLINK-34687,2025-157F,2026-06-12T20:00:01.999008,15.33566945,.0001204,53.1596,263.7693,83.9488,152.8720,0,U,64909,999,590,.23057E-3,.7222E-4,0
STARLINK-34642,2025-157G,2026-06-11T23:59:48.083712,15.31717386,.00008532,53.1591,266.8654,110.3169,249.7924,0,U,64910,999,5057,.5089686E-3,.1547E-3,0
STARLINK-34718,2025-157H,2026-06-12T20:00:01.999008,15.34389576,.0001255,53.1600,263.8118,67.8734,149.4084,0,U,64911,999,591,.25162E-3,.8132E-4,0
STARLINK-34711,2025-157J,2026-06-11T14:03:37.082304,15.34386573,.0000529,53.1594,269.2558,64.3216,295.7842,0,U,64912,999,5050,.67514E-3,.22493E-3,0
