STARLINK-34706          
1 64845U 25152D   26163.19359755  .00003944  00000+0  27710-3 0  9993
2 64845  97.3718  17.7608 0002083  72.5084 287.6371 15.05659713 49630
STARLINK-34736          
1 64846U 25152E   26163.83335647 -.00003563  00000+0 -24305-3 0  9995
2 64846  97.3674  18.4487 0001787  87.9120 332.7326 15.05651227  5834
STARLINK-34746          
1 64847U 25152F   26163.16314361  .00001384  00000+0  99897-4 0  9998
2 64847  97.3729  17.8035 0002229  89.2009 270.9474 15.05653581 49639
STARLINK-34748          
1 64848U 25152G   26163.88034001  .00005649  00000+0  39508-3 0  9998
2 64848  97.3702  18.5220 0001906  94.9658 265.1787 15.05660205 49745
STARLINK-34756          
1 64849U 25152H   26163.83051166  .00004768  00000+0  33411-3 0  9993
2 64849  97.3697  18.4521 0001852  84.9275 275.2164 15.05661383 49734
STARLINK-34757          
1 64850U 25152J   26163.83880034  .00002571  00000+0  18207-3 0  9995
2 64850  97.3699  18.4223 0002227  88.4752 271.6730 15.05656359 49739
STARLINK-34722          
1 64851U 25152K   26163.84987536  .00003169  00000+0  22346-3 0  9995
2 64851  97.3694  18.4096 0002716  80.5314 279.6220 15.05658496 49739
STARLINK-34564          
1 64852U 25152L   26163.83325675  .00004399  00000+0  30870-3 0  9992
2 64852  97.3698  18.4316 0001867  86.2826 273.8615 15.05650960 49738
STARLINK-34676          
1 64853U 25152M   26163.85264498  .00000205  00000+0  18179-4 0  9991
2 64853  97.3693  18.4037 0003384  86.1206 274.0408 15.05660815 49734
STARLINK-34682          
1 64854U 25152N   26163.14099488  .00001961  00000+0  13982-3 0  9995
2 64854  97.3729  17.8385 0002450  86.9515 273.1993 15.05656155 49638
STARLINK-34631          
1 64855U 25152P   26163.83605119  .00005247  00000+0  36726-3 0  9998
2 64855  97.3694  18.4276 0002604  76.0235 284.1282 15.05662819 49734
STARLINK-34578          
1 64856U 25152Q   26163.13545597  .00004962  00000+0  34752-3 0  9995
2 64856  97.3715  17.8467 0002154  93.5460 266.6014 15.05662614 49638
STARLINK-34683          
1 64857U 25152R   26163.29329010  .00001372  00000+0  99040-4 0  9997
2 64857  97.3715  17.9388 0002152  80.8602 279.2868 15.05659263 49652
STARLINK-34654          
1 64858U 25152S   26163.86926502  .00001592  00000+0  11427-3 0  9996
2 64858  97.3690  18.5291 0002411  79.8828 280.2671 15.05661709 49743
STARLINK-34575          
1 64859U 25152T   26163.86372894  .00002478  00000+0  17560-3 0  9994
2 64859  97.3693  18.5452 0002226  86.8415 273.3067 15.05658466 49748
STARLINK-34570          
1 64860U 25152U   26163.85540645  .00000437  00000+0  34301-4 0  9992
2 64860  97.3696  18.4102 0002898  86.5355 273.6204 15.05655878 49738
STARLINK-34651          
1 64861U 25152V   26163.84157834  .00004236  00000+0  29736-3 0  9992
2 64861  97.3687  18.4412 0002494  90.1974 269.9539 15.05653514 49737
STARLINK-34684          
1 64862U 25152W   26163.15206553  .00000565  00000+0  43133-4 0  9999
2 64862  97.3724  17.8270 0001793  83.7572 276.3860 15.05658221 49636
STARLINK-34690          
1 64863U 25152X   26163.87480356  .00003136  00000+0  22122-3 0  9995
2 64863  97.3687  18.5360 0002019  75.1840 284.9611 15.05658351 49743
STARLINK-34628          
1 64864U 25152Y   26163.15483547  .00002592  00000+0  18349-3 0  9993
2 64864  97.3714  17.8164 0002075  70.5812 289.5639 15.05664358 49632
STARLINK-34544          
1 64865U 25152Z   26163.87757497  .00000599  00000+0  45475-4 0  9997
2 64865  97.3727  18.5271 0001293  89.4298 270.7078 15.05644156 49747
STARLINK-34647          
1 64904U 25157A   26162.58795189  .00021261  00000+0  63887-3 0  9998
2 64904  53.1598 269.2740 0001274  94.7583 265.3565 15.34386358 50492
STARLINK-34273          
1 64905U 25157B   26162.57953197  .00028998  00000+0  86593-3 0  9996
2 64905  53.1593 269.2114 0001097  91.8632 268.2496 15.34404538 50518
STARLINK-34713          
1 64906U 25157C   26162.60941524  .00020379  00000+0  69810-3 0  9990
2 64906  53.1591 269.3980 0001247 129.1970 230.9142 15.30209433 50456
STARLINK-34712          
1 64907U 25157D   26162.58328775  .00042809  00000+0  12697-2 0  9997
2 64907  53.1588 267.8203 0001005  75.2875 284.8239 15.34430423 50523
STARLINK-34702          
1 64908U 25157E   26162.56644866  .00029904  00000+0  97195-3 0  9996
2 64908  53.1603 269.1324 0001300  70.6042 289.5100 15.31686185 50506
STARLINK-34687          
1 64909U 25157F   26163.83335647  .00007222  00000+0  23057-3 0  9997
2 64909  53.1596 263.7693 0001204  83.9488 152.8720 15.33566945  5908
STARLINK-34642          
1 64910U 25157G   26162.99986208  .00015470  00000+0  50897-3 0  9996
2 64910  53.1591 266.8654 0000853 110.3169 249.7924 15.31717386 50576
STARLINK-34718          
1 64911U 25157H   26163.83335647  .00008132  00000+0  25162-3 0  9990
2 64911  53.1600 263.8118 0001255  67.8734 149.4084 15.34389576  5911
STARLINK-34711          
1 64912U 25157J   26162.58584586  .00022493  00000+0  67514-3 0  9993
2 64912  53.1594 269.2558 0000529  64.3216 295.7842 15.34386573 50508
